{"type": "FeatureCollection", "features": [ {"type": "Feature", "properties": {"norad_id": 41175, "name": "GSAT0208 (GALILEO 11)", "group": "galileo", "lat": 51.134142055643, "lon": 164.2240355625189, "alt_km": 23213.873784871877, "timestamp": "2025-12-09T07:41:33.470740+00:00", "meta": {"OBJECT_NAME": "GSAT0208 (GALILEO 11)", "OBJECT_ID": "2015-079B", "EPOCH": "2025-12-07T10:42:17.817120", "MEAN_MOTION": 1.70474201, "ECCENTRICITY": 0.00018539, "INCLINATION": 55.7081, "RA_OF_ASC_NODE": 106.5234, "ARG_OF_PERICENTER": 5.1909, "MEAN_ANOMALY": 354.7678, "EPHEMERIS_TYPE": 0, "CLASSIFICATION_TYPE": "U", "NORAD_CAT_ID": 41175, "ELEMENT_SET_NO": 999, "REV_AT_EPOCH": 6192, "BSTAR": 0, "MEAN_MOTION_DOT": 8e-08, "MEAN_MOTION_DDOT": 0}, "tle": {"line1": "1 41175U 15079B   25341.44603955  .00000008  00000+0  00000+0 0  9997", "line2": "2 41175  55.7081 106.5234 0001853   5.1909 354.7678  1.70474201 61922"}}, "geometry": {"type": "Point", "coordinates": [164.2240355625189, 51.134142055643]}}, {"type": "Feature", "properties": {"norad_id": 41549, "name": "GSAT0211 (GALILEO 14)", "group": "galileo", "lat": -4.7053480076422725, "lon": -136.35731489601136, "alt_km": 23212.014754210322, "timestamp": "2025-12-09T07:41:33.470753+00:00", "meta": {"OBJECT_NAME": "GSAT0211 (GALILEO 14)", "OBJECT_ID": "2016-030A", "EPOCH": "2025-12-07T13:40:58.264320", "MEAN_MOTION": 1.70472997, "ECCENTRICITY": 0.00040128, "INCLINATION": 55.154, "RA_OF_ASC_NODE": 226.9659, "ARG_OF_PERICENTER": 14.4678, "MEAN_ANOMALY": 345.6377, "EPHEMERIS_TYPE": 0, "CLASSIFICATION_TYPE": "U", "NORAD_CAT_ID": 41549, "ELEMENT_SET_NO": 999, "REV_AT_EPOCH": 5940, "BSTAR": 0, "MEAN_MOTION_DOT": 2.3e-07, "MEAN_MOTION_DDOT": 0}, "tle": {"line1": "1 41549U 16030A   25341.57011880  .00000023  00000+0  00000+0 0  9991", "line2": "2 41549  55.1540 226.9659 0004012  14.4678 345.6377  1.70472997 59400"}}, "geometry": {"type": "Point", "coordinates": [-136.35731489601136, -4.7053480076422725]}}, {"type": "Feature", "properties": {"norad_id": 41550, "name": "GSAT0210 (GALILEO 13)", "group": "galileo", "lat": -13.33229464570756, "lon": 56.42014645319075, "alt_km": 23221.481785111308, "timestamp": "2025-12-09T07:41:33.470765+00:00", "meta": {"OBJECT_NAME": "GSAT0210 (GALILEO 13)", "OBJECT_ID": "2016-030B", "EPOCH": "2025-12-07T19:51:37.971648", "MEAN_MOTION": 1.70473554, "ECCENTRICITY": 0.00013454, "INCLINATION": 55.1532, "RA_OF_ASC_NODE": 226.9569, "ARG_OF_PERICENTER": 243.5769, "MEAN_ANOMALY": 116.5022, "EPHEMERIS_TYPE": 0, "CLASSIFICATION_TYPE": "U", "NORAD_CAT_ID": 41550, "ELEMENT_SET_NO": 999, "REV_AT_EPOCH": 5940, "BSTAR": 0, "MEAN_MOTION_DOT": 2.1e-07, "MEAN_MOTION_DDOT": 0}, "tle": {"line1": "1 41550U 16030B   25341.82752282  .00000021  00000+0  00000+0 0  9997", "line2": "2 41550  55.1532 226.9569 0001345 243.5769 116.5022  1.70473554 59407"}}, "geometry": {"type": "Point", "coordinates": [56.42014645319075, -13.33229464570756]}}, {"type": "Feature", "properties": {"norad_id": 41859, "name": "GSAT0207 (GALILEO 15)", "group": "galileo", "lat": 20.76594084943072, "lon": 121.50450957650797, "alt_km": 23216.580032589492, "timestamp": "2025-12-09T07:41:33.470777+00:00", "meta": {"OBJECT_NAME": "GSAT0207 (GALILEO 15)", "OBJECT_ID": "2016-069A", "EPOCH": "2025-12-06T22:22:57.829728", "MEAN_MOTION": 1.70474256, "ECCENTRICITY": 0.00021753, "INCLINATION": 55.3787, "RA_OF_ASC_NODE": 106.4111, "ARG_OF_PERICENTER": 324.2379, "MEAN_ANOMALY": 35.7022, "EPHEMERIS_TYPE": 0, "CLASSIFICATION_TYPE": "U", "NORAD_CAT_ID": 41859, "ELEMENT_SET_NO": 999, "REV_AT_EPOCH": 5612, "BSTAR": 0, "MEAN_MOTION_DOT": 7e-08, "MEAN_MOTION_DDOT": 0}, "tle": {"line1": "1 41859U 16069A   25340.93261377  .00000007  00000+0  00000+0 0  9996", "line2": "2 41859  55.3787 106.4111 0002175 324.2379  35.7022  1.70474256 56122"}}, "geometry": {"type": "Point", "coordinates": [121.50450957650797, 20.76594084943072]}}, {"type": "Feature", "properties": {"norad_id": 41860, "name": "GSAT0212 (GALILEO 16)", "group": "galileo", "lat": 48.032527726831304, "lon": -123.79109444390124, "alt_km": 23215.630524259872, "timestamp": "2025-12-09T07:41:33.470795+00:00", "meta": {"OBJECT_NAME": "GSAT0212 (GALILEO 16)", "OBJECT_ID": "2016-069B", "EPOCH": "2025-12-06T04:47:33.838080", "MEAN_MOTION": 1.70474471, "ECCENTRICITY": 0.00022225, "INCLINATION": 55.376, "RA_OF_ASC_NODE": 106.4267, "ARG_OF_PERICENTER": 32.4045, "MEAN_ANOMALY": 327.5613, "EPHEMERIS_TYPE": 0, "CLASSIFICATION_TYPE": "U", "NORAD_CAT_ID": 41860, "ELEMENT_SET_NO": 999, "REV_AT_EPOCH": 5636, "BSTAR": 0, "MEAN_MOTION_DOT": 6e-08, "MEAN_MOTION_DDOT": 0}, "tle": {"line1": "1 41860U 16069B   25340.19969720  .00000006  00000+0  00000+0 0  9992", "line2": "2 41860  55.3760 106.4267 0002222  32.4045 327.5613  1.70474471 56361"}}, "geometry": {"type": "Point", "coordinates": [-123.79109444390124, 48.032527726831304]}}, {"type": "Feature", "properties": {"norad_id": 41861, "name": "GSAT0213 (GALILEO 17)", "group": "galileo", "lat": -50.53792167763749, "lon": -16.700326946091018, "alt_km": 23222.265673465598, "timestamp": "2025-12-09T07:41:33.470823+00:00", "meta": {"OBJECT_NAME": "GSAT0213 (GALILEO 17)", "OBJECT_ID": "2016-069C", "EPOCH": "2025-12-07T03:41:32.905248", "MEAN_MOTION": 1.70474767, "ECCENTRICITY": 0.00022126, "INCLINATION": 55.379, "RA_OF_ASC_NODE": 106.408, "ARG_OF_PERICENTER": 283.542, "MEAN_ANOMALY": 76.3889, "EPHEMERIS_TYPE": 0, "CLASSIFICATION_TYPE": "U", "NORAD_CAT_ID": 41861, "ELEMENT_SET_NO": 999, "REV_AT_EPOCH": 5624, "BSTAR": 0, "MEAN_MOTION_DOT": 7e-08, "MEAN_MOTION_DDOT": 0}, "tle": {"line1": "1 41861U 16069C   25341.15385307  .00000007  00000+0  00000+0 0  9994", "line2": "2 41861  55.3790 106.4080 0002212 283.5420  76.3889  1.70474767 56242"}}, "geometry": {"type": "Point", "coordinates": [-16.700326946091018, -50.53792167763749]}}, {"type": "Feature", "properties": {"norad_id": 41862, "name": "GSAT0214 (GALILEO 18)", "group": "galileo", "lat": 16.226938197584918, "lon": -85.25704514278664, "alt_km": 23222.6119003216, "timestamp": "2025-12-09T07:41:33.470848+00:00", "meta": {"OBJECT_NAME": "GSAT0214 (GALILEO 18)", "OBJECT_ID": "2016-069D", "EPOCH": "2025-12-07T21:16:28.160256", "MEAN_MOTION": 1.70474622, "ECCENTRICITY": 0.00012492, "INCLINATION": 55.3777, "RA_OF_ASC_NODE": 106.3805, "ARG_OF_PERICENTER": 290.0949, "MEAN_ANOMALY": 69.8506, "EPHEMERIS_TYPE": 0, "CLASSIFICATION_TYPE": "U", "NORAD_CAT_ID": 41862, "ELEMENT_SET_NO": 999, "REV_AT_EPOCH": 5638, "BSTAR": 0, "MEAN_MOTION_DOT": 8e-08, "MEAN_MOTION_DDOT": 0}, "tle": {"line1": "1 41862U 16069D   25341.88643704  .00000008  00000+0  00000+0 0  9994", "line2": "2 41862  55.3777 106.3805 0001249 290.0949  69.8506  1.70474622 56388"}}, "geometry": {"type": "Point", "coordinates": [-85.25704514278664, 16.226938197584918]}}, {"type": "Feature", "properties": {"norad_id": 43055, "name": "GSAT0215 (GALILEO 19)", "group": "galileo", "lat": -31.32926018186524, "lon": 71.8322774287127, "alt_km": 23228.247163686156, "timestamp": "2025-12-09T07:41:33.470861+00:00", "meta": {"OBJECT_NAME": "GSAT0215 (GALILEO 19)", "OBJECT_ID": "2017-079A", "EPOCH": "2025-12-07T04:52:59.599776", "MEAN_MOTION": 1.70473814, "ECCENTRICITY": 0.00012904, "INCLINATION": 55.132, "RA_OF_ASC_NODE": 226.7905, "ARG_OF_PERICENTER": 342.2986, "MEAN_ANOMALY": 17.7924, "EPHEMERIS_TYPE": 0, "CLASSIFICATION_TYPE": "U", "NORAD_CAT_ID": 43055, "ELEMENT_SET_NO": 999, "REV_AT_EPOCH": 4971, "BSTAR": 0, "MEAN_MOTION_DOT": 2.6e-07, "MEAN_MOTION_DDOT": 0}, "tle": {"line1": "1 43055U 17079A   25341.20346759  .00000026  00000+0  00000+0 0  9998", "line2": "2 43055  55.1320 226.7905 0001290 342.2986  17.7924  1.70473814 49718"}}, "geometry": {"type": "Point", "coordinates": [71.8322774287127, -31.32926018186524]}}, {"type": "Feature", "properties": {"norad_id": 43056, "name": "GSAT0216 (GALILEO 20)", "group": "galileo", "lat": 32.23481079151499, "lon": -107.20032920109878, "alt_km": 23217.23246539663, "timestamp": "2025-12-09T07:41:33.470873+00:00", "meta": {"OBJECT_NAME": "GSAT0216 (GALILEO 20)", "OBJECT_ID": "2017-079B", "EPOCH": "2025-12-08T01:57:06.766848", "MEAN_MOTION": 1.70473892, "ECCENTRICITY": 0.00025149, "INCLINATION": 55.132, "RA_OF_ASC_NODE": 226.7661, "ARG_OF_PERICENTER": 318.3772, "MEAN_ANOMALY": 41.6956, "EPHEMERIS_TYPE": 0, "CLASSIFICATION_TYPE": "U", "NORAD_CAT_ID": 43056, "ELEMENT_SET_NO": 999, "REV_AT_EPOCH": 4974, "BSTAR": 0, "MEAN_MOTION_DOT": 1.9e-07, "MEAN_MOTION_DDOT": 0}, "tle": {"line1": "1 43056U 17079B   25342.08132832  .00000019  00000+0  00000+0 0  9993", "line2": "2 43056  55.1320 226.7661 0002514 318.3772  41.6956  1.70473892 49745"}}, "geometry": {"type": "Point", "coordinates": [-107.20032920109878, 32.23481079151499]}}, {"type": "Feature", "properties": {"norad_id": 43057, "name": "GSAT0217 (GALILEO 21)", "group": "galileo", "lat": -54.83145946185032, "lon": 128.14374339241616, "alt_km": 23226.267548035717, "timestamp": "2025-12-09T07:41:33.470884+00:00", "meta": {"OBJECT_NAME": "GSAT0217 (GALILEO 21)", "OBJECT_ID": "2017-079C", "EPOCH": "2025-12-08T07:14:55.853376", "MEAN_MOTION": 1.70473894, "ECCENTRICITY": 0.0002795, "INCLINATION": 55.1299, "RA_OF_ASC_NODE": 226.758, "ARG_OF_PERICENTER": 342.2851, "MEAN_ANOMALY": 17.7961, "EPHEMERIS_TYPE": 0, "CLASSIFICATION_TYPE": "U", "NORAD_CAT_ID": 43057, "ELEMENT_SET_NO": 999, "REV_AT_EPOCH": 4973, "BSTAR": 0, "MEAN_MOTION_DOT": 1.7e-07, "MEAN_MOTION_DDOT": 0}, "tle": {"line1": "1 43057U 17079C   25342.30203534  .00000017  00000+0  00000+0 0  9995", "line2": "2 43057  55.1299 226.7580 0002795 342.2851  17.7961  1.70473894 49737"}}, "geometry": {"type": "Point", "coordinates": [128.14374339241616, -54.83145946185032]}}]}